[{"OBJECT_NAME":"ATLAS CENTAUR 2","OBJECT_ID":"1963-047A","EPOCH":"2026-04-21T21:08:30.230880","MEAN_MOTION":14.12271673,"ECCENTRICITY":0.054669,"INCLINATION":30.3531,"RA_OF_ASC_NODE":314.2338,"ARG_OF_PERICENTER":101.0047,"MEAN_ANOMALY":265.2512,"EPHEMERIS_TYPE":0,"CLASSIFICATION_TYPE":"U","NORAD_CAT_ID":694,"ELEMENT_SET_NO":999,"REV_AT_EPOCH":13773,"BSTAR":0.00032135,"MEAN_MOTION_DOT":2.708e-5,"MEAN_MOTION_DDOT":0},{"OBJECT_NAME":"THOR AGENA D R/B","OBJECT_ID":"1964-002A","EPOCH":"2026-04-21T18:45:15.431040","MEAN_MOTION":14.3404123,"ECCENTRICITY":0.003373,"INCLINATION":99.1193,"RA_OF_ASC_NODE":127.4642,"ARG_OF_PERICENTER":131.9381,"MEAN_ANOMALY":228.4685,"EPHEMERIS_TYPE":0,"CLASSIFICATION_TYPE":"U","NORAD_CAT_ID":733,"ELEMENT_SET_NO":999,"REV_AT_EPOCH":24447,"BSTAR":5.9692e-5,"MEAN_MOTION_DOT":1.19e-6,"MEAN_MOTION_DDOT":0},{"OBJECT_NAME":"SL-3 R/B","OBJECT_ID":"1964-053B","EPOCH":"2026-04-21T12:44:58.107840","MEAN_MOTION":14.61396777,"ECCENTRICITY":0.00810315,"INCLINATION":65.0771,"RA_OF_ASC_NODE":205.6286,"ARG_OF_PERICENTER":278.7841,"MEAN_ANOMALY":80.4088,"EPHEMERIS_TYPE":0,"CLASSIFICATION_TYPE":"U","NORAD_CAT_ID":877,"ELEMENT_SET_NO":999,"REV_AT_EPOCH":27305,"BSTAR":4.393953e-5,"MEAN_MOTION_DOT":1.01e-6,"MEAN_MOTION_DDOT":0},{"OBJECT_NAME":"SL-8 R/B","OBJECT_ID":"1967-045B","EPOCH":"2026-04-21T19:49:16.044960","MEAN_MOTION":14.45652298,"ECCENTRICITY":0.0065186,"INCLINATION":74.0099,"RA_OF_ASC_NODE":267.5229,"ARG_OF_PERICENTER":264.5839,"MEAN_ANOMALY":94.788,"EPHEMERIS_TYPE":0,"CLASSIFICATION_TYPE":"U","NORAD_CAT_ID":2802,"ELEMENT_SET_NO":999,"REV_AT_EPOCH":9525,"BSTAR":5.8663e-5,"MEAN_MOTION_DOT":1.84e-6,"MEAN_MOTION_DDOT":0},{"OBJECT_NAME":"SL-8 R/B","OBJECT_ID":"1968-040B","EPOCH":"2026-04-21T18:19:39.793728","MEAN_MOTION":15.03536915,"ECCENTRICITY":0.0023861,"INCLINATION":74.0314,"RA_OF_ASC_NODE":225.6541,"ARG_OF_PERICENTER":31.8075,"MEAN_ANOMALY":328.4548,"EPHEMERIS_TYPE":0,"CLASSIFICATION_TYPE":"U","NORAD_CAT_ID":3230,"ELEMENT_SET_NO":999,"REV_AT_EPOCH":9648,"BSTAR":0.00013341,"MEAN_MOTION_DOT":1.789e-5,"MEAN_MOTION_DDOT":0},{"OBJECT_NAME":"OAO 2","OBJECT_ID":"1968-110A","EPOCH":"2026-04-21T11:39:52.712928","MEAN_MOTION":14.47329519,"ECCENTRICITY":0.00057099,"INCLINATION":34.9945,"RA_OF_ASC_NODE":26.2718,"ARG_OF_PERICENTER":187.7586,"MEAN_ANOMALY":172.3017,"EPHEMERIS_TYPE":0,"CLASSIFICATION_TYPE":"U","NORAD_CAT_ID":3597,"ELEMENT_SET_NO":999,"REV_AT_EPOCH":2530,"BSTAR":4.3475435e-5,"MEAN_MOTION_DOT":1.42e-6,"MEAN_MOTION_DDOT":0},{"OBJECT_NAME":"ISIS 1","OBJECT_ID":"1969-009A","EPOCH":"2026-04-21T09:00:47.408544","MEAN_MOTION":11.30423544,"ECCENTRICITY":0.17072199,"INCLINATION":88.4457,"RA_OF_ASC_NODE":150.6421,"ARG_OF_PERICENTER":3.0362,"MEAN_ANOMALY":357.96,"EPHEMERIS_TYPE":0,"CLASSIFICATION_TYPE":"U","NORAD_CAT_ID":3669,"ELEMENT_SET_NO":999,"REV_AT_EPOCH":35335,"BSTAR":4.454133e-5,"MEAN_MOTION_DOT":7.1e-7,"MEAN_MOTION_DDOT":0},{"OBJECT_NAME":"SERT 2","OBJECT_ID":"1970-009A","EPOCH":"2026-04-21T20:08:34.465056","MEAN_MOTION":13.58735036,"ECCENTRICITY":0.0005734,"INCLINATION":99.2812,"RA_OF_ASC_NODE":52.5852,"ARG_OF_PERICENTER":59.8097,"MEAN_ANOMALY":311.4865,"EPHEMERIS_TYPE":0,"CLASSIFICATION_TYPE":"U","NORAD_CAT_ID":4327,"ELEMENT_SET_NO":999,"REV_AT_EPOCH":78575,"BSTAR":8.6954e-5,"MEAN_MOTION_DOT":2.2e-7,"MEAN_MOTION_DDOT":0},{"OBJECT_NAME":"SL-3 R/B","OBJECT_ID":"1971-028B","EPOCH":"2026-04-21T19:17:38.765760","MEAN_MOTION":15.64853875,"ECCENTRICITY":0.0016575,"INCLINATION":81.2365,"RA_OF_ASC_NODE":358.6321,"ARG_OF_PERICENTER":123.8666,"MEAN_ANOMALY":236.4169,"EPHEMERIS_TYPE":0,"CLASSIFICATION_TYPE":"U","NORAD_CAT_ID":5118,"ELEMENT_SET_NO":999,"REV_AT_EPOCH":99540,"BSTAR":0.00039846,"MEAN_MOTION_DOT":0.00039265,"MEAN_MOTION_DDOT":0},{"OBJECT_NAME":"ASTEX 1","OBJECT_ID":"1971-089A","EPOCH":"2026-04-21T15:42:00.402048","MEAN_MOTION":14.50809285,"ECCENTRICITY":0.0013481,"INCLINATION":92.7055,"RA_OF_ASC_NODE":165.6374,"ARG_OF_PERICENTER":304.2411,"MEAN_ANOMALY":55.7517,"EPHEMERIS_TYPE":0,"CLASSIFICATION_TYPE":"U","NORAD_CAT_ID":5560,"ELEMENT_SET_NO":999,"REV_AT_EPOCH":86853,"BSTAR":7.7574e-5,"MEAN_MOTION_DOT":3.05e-6,"MEAN_MOTION_DDOT":0},{"OBJECT_NAME":"SL-8 R/B","OBJECT_ID":"1971-119B","EPOCH":"2026-04-21T17:06:43.162848","MEAN_MOTION":14.38580905,"ECCENTRICITY":0.0545502,"INCLINATION":73.8846,"RA_OF_ASC_NODE":95.2488,"ARG_OF_PERICENTER":52.7779,"MEAN_ANOMALY":312.1872,"EPHEMERIS_TYPE":0,"CLASSIFICATION_TYPE":"U","NORAD_CAT_ID":5730,"ELEMENT_SET_NO":999,"REV_AT_EPOCH":66167,"BSTAR":0.00045473,"MEAN_MOTION_DOT":8.739e-5,"MEAN_MOTION_DDOT":0},{"OBJECT_NAME":"OAO 3 (COPERNICUS)","OBJECT_ID":"1972-065A","EPOCH":"2026-04-21T13:34:36.067008","MEAN_MOTION":14.60028491,"ECCENTRICITY":0.0006417,"INCLINATION":35.0063,"RA_OF_ASC_NODE":53.0226,"ARG_OF_PERICENTER":157.1928,"MEAN_ANOMALY":9.4404,"EPHEMERIS_TYPE":0,"CLASSIFICATION_TYPE":"U","NORAD_CAT_ID":6153,"ELEMENT_SET_NO":999,"REV_AT_EPOCH":85246,"BSTAR":4.4067e-5,"MEAN_MOTION_DOT":1.94e-6,"MEAN_MOTION_DDOT":0},{"OBJECT_NAME":"ATLAS CENTAUR R/B","OBJECT_ID":"1972-065B","EPOCH":"2026-04-21T12:41:28.754592","MEAN_MOTION":14.77798924,"ECCENTRICITY":0.00333095,"INCLINATION":35.0021,"RA_OF_ASC_NODE":54.6719,"ARG_OF_PERICENTER":9.6396,"MEAN_ANOMALY":350.4938,"EPHEMERIS_TYPE":0,"CLASSIFICATION_TYPE":"U","NORAD_CAT_ID":6155,"ELEMENT_SET_NO":999,"REV_AT_EPOCH":84760,"BSTAR":0.0001170582,"MEAN_MOTION_DOT":8.37e-6,"MEAN_MOTION_DDOT":0},{"OBJECT_NAME":"SL-8 R/B","OBJECT_ID":"1975-112B","EPOCH":"2026-04-21T18:26:43.808640","MEAN_MOTION":14.38224124,"ECCENTRICITY":0.0015277,"INCLINATION":74.0595,"RA_OF_ASC_NODE":299.6663,"ARG_OF_PERICENTER":16.7516,"MEAN_ANOMALY":343.4139,"EPHEMERIS_TYPE":0,"CLASSIFICATION_TYPE":"U","NORAD_CAT_ID":8459,"ELEMENT_SET_NO":999,"REV_AT_EPOCH":63806,"BSTAR":2.5931e-5,"MEAN_MOTION_DOT":5.3e-7,"MEAN_MOTION_DDOT":0},{"OBJECT_NAME":"SL-3 R/B","OBJECT_ID":"1977-057B","EPOCH":"2026-04-21T19:44:54.227040","MEAN_MOTION":15.46643589,"ECCENTRICITY":0.0008302,"INCLINATION":97.5822,"RA_OF_ASC_NODE":285.6953,"ARG_OF_PERICENTER":123.6937,"MEAN_ANOMALY":236.5105,"EPHEMERIS_TYPE":0,"CLASSIFICATION_TYPE":"U","NORAD_CAT_ID":10114,"ELEMENT_SET_NO":999,"REV_AT_EPOCH":67499,"BSTAR":0.00023198,"MEAN_MOTION_DOT":0.00011489,"MEAN_MOTION_DDOT":0},{"OBJECT_NAME":"SEASAT 1","OBJECT_ID":"1978-064A","EPOCH":"2026-04-21T12:29:47.408640","MEAN_MOTION":14.46195891,"ECCENTRICITY":0.00027949,"INCLINATION":108.0079,"RA_OF_ASC_NODE":215.3644,"ARG_OF_PERICENTER":263.0036,"MEAN_ANOMALY":97.0792,"EPHEMERIS_TYPE":0,"CLASSIFICATION_TYPE":"U","NORAD_CAT_ID":10967,"ELEMENT_SET_NO":999,"REV_AT_EPOCH":51270,"BSTAR":9.0241961e-5,"MEAN_MOTION_DOT":1.85e-6,"MEAN_MOTION_DDOT":0},{"OBJECT_NAME":"SL-14 R/B","OBJECT_ID":"1979-011B","EPOCH":"2026-04-21T20:09:12.010176","MEAN_MOTION":14.91962548,"ECCENTRICITY":0.0014366,"INCLINATION":82.5247,"RA_OF_ASC_NODE":55.6173,"ARG_OF_PERICENTER":274.0684,"MEAN_ANOMALY":85.8894,"EPHEMERIS_TYPE":0,"CLASSIFICATION_TYPE":"U","NORAD_CAT_ID":11267,"ELEMENT_SET_NO":999,"REV_AT_EPOCH":53521,"BSTAR":4.0938e-5,"MEAN_MOTION_DOT":4.4e-6,"MEAN_MOTION_DDOT":0}]
