ATLAS CENTAUR 2         
1 00694U 63047A   26111.88090545  .00002708  00000+0  32135-3 0  9992
2 00694  30.3531 314.2338 0546690 101.0047 265.2512 14.12271673137731
THOR AGENA D R/B        
1 00733U 64002A   26111.78142860  .00000119  00000+0  59692-4 0  9997
2 00733  99.1193 127.4642 0033730 131.9381 228.4685 14.34041230244473
SL-3 R/B                
1 00877U 64053B   26111.53122810  .00000101  00000+0  43940-4 0  9998
2 00877  65.0771 205.6286 0081031 278.7841  80.4088 14.61396777273055
SL-8 R/B                
1 02802U 67045B   26111.82588015  .00000184  00000+0  58663-4 0  9996
2 02802  74.0099 267.5229 0065186 264.5839  94.7880 14.45652298 95252
SL-8 R/B                
1 03230U 68040B   26111.76365502  .00001789  00000+0  13341-3 0  9990
2 03230  74.0314 225.6541 0023861  31.8075 328.4548 15.03536915 96487
OAO 2                   
1 03597U 68110A   26111.48602677  .00000142  00000+0  43475-4 0  9994
2 03597  34.9945  26.2718 0005709 187.7586 172.3017 14.47329519 25305
ISIS 1                  
1 03669U 69009A   26111.37554871  .00000071  00000+0  44541-4 0  9998
2 03669  88.4457 150.6421 1707219   3.0362 357.9600 11.30423544353358
SERT 2                  
1 04327U 70009A   26111.83928779  .00000022  00000+0  86954-4 0  9995
2 04327  99.2812  52.5852 0005734  59.8097 311.4865 13.58735036785754
SL-3 R/B                
1 05118U 71028B   26111.80392090  .00039265  00000+0  39846-3 0  9992
2 05118  81.2365 358.6321 0016575 123.8666 236.4169 15.64853875995406
ASTEX 1                 
1 05560U 71089A   26111.65417132  .00000305  00000+0  77574-4 0  9992
2 05560  92.7055 165.6374 0013481 304.2411  55.7517 14.50809285868532
SL-8 R/B                
1 05730U 71119B   26111.71299957  .00008739  00000+0  45473-3 0  9996
2 05730  73.8846  95.2488 0545502  52.7779 312.1872 14.38580905661670
OAO 3 (COPERNICUS)      
1 06153U 72065A   26111.56569522  .00000194  00000+0  44067-4 0  9994
2 06153  35.0063  53.0226 0006417 157.1928   9.4404 14.60028491852464
ATLAS CENTAUR R/B       
1 06155U 72065B   26111.52880503  .00000837  00000+0  11706-3 0  9994
2 06155  35.0021  54.6719 0033309   9.6396 350.4938 14.77798924847608
SL-8 R/B                
1 08459U 75112B   26111.76856260  .00000053  00000+0  25931-4 0  9994
2 08459  74.0595 299.6663 0015277  16.7516 343.4139 14.38224124638068
SL-3 R/B                
1 10114U 77057B   26111.82284985  .00011489  00000+0  23198-3 0  9998
2 10114  97.5822 285.6953 0008302 123.6937 236.5105 15.46643589674992
SEASAT 1                
1 10967U 78064A   26111.52068760  .00000185  00000+0  90242-4 0  9997
2 10967 108.0079 215.3644 0002794 263.0036  97.0792 14.46195891512704
SL-14 R/B               
1 11267U 79011B   26111.83972234  .00000440  00000+0  40938-4 0  9999
2 11267  82.5247  55.6173 0014366 274.0684  85.8894 14.91962548535212
